1 27663U 03005A   20164.39026227 -.00000063  00000-0  00000-0 0  9996
2 27663  56.0555 302.1580 0113508  35.4282 343.6069  2.00552147127279
1 27663U 03005A   20165.45555450 -.00000067  00000-0  00000-0 0  9993
2 27663  56.0549 302.1161 0113494  35.4368  32.7466  2.00552094127285
1 27663U 03005A   20165.60814618 -.00000068  00000-0  00000-0 0  9995
2 27663  56.0547 302.1101 0113489  35.4369 142.9187  2.00552085127297
1 27663U 03005A   20167.08967819 -.00000071  00000-0  00000-0 0  9995
2 27663  56.0535 302.0519 0113468  35.4489 132.5823  2.00552002127321
1 27663U 03005A   20167.85123000 -.00000071  00000-0  00000+0 0  9995
2 27663  56.0529 302.0219 0113460  35.4551 322.4212  2.00551955127332
1 27663U 03005A   20167.85123000 -.00000071  00000-0  00000-0 0  9996
2 27663  56.0529 302.0219 0113460  35.4551 322.4212  2.00551955127332
1 27663U 03005A   20168.85632138 -.00000068  00000-0  00000-0 0  9990
2 27663  56.0520 301.9824 0113442  35.4629 328.0956  2.00551896127363
1 27663U 03005A   20169.08878370 -.00000067  00000-0  00000-0 0  9995
2 27663  56.0519 301.9733 0113433  35.4638 135.9338  2.00551879127360
1 27663U 03005A   20170.08611580 -.00000061  00000-0  00000+0 0  9998
2 27663  56.0509 301.9340 0113416  35.4682 136.0088  2.00551805127377
1 27663U 03005A   20172.08045238 -.00000047  00000-0  00000-0 0  9996
2 27663  56.0495 301.8557 0113392  35.4780 135.9208  2.00551652127419
1 27663U 03005A   20173.34276917 -.00000038  00000-0  00000-0 0  9996
2 27663  56.0485 301.8060 0113383  35.4850 327.3128  2.00551550127454
1 27663U 03005A   20174.04195976 -.00000033  00000-0  00000-0 0  9994
2 27663  56.0479 301.7785 0113373  35.4878 112.1290  2.00551492127465
1 27663U 03005A   20174.58087271 -.00000031  00000-0  00000+0 0  9998
2 27663  56.0475 301.7573 0113367  35.4898 141.2247  2.00551449127468
1 27663U 03005A   20175.58609904 -.00000028  00000-0  00000-0 0  9999
2 27663  56.0467 301.7178 0113356  35.4940 146.9983  2.00551364127494
1 27663U 03005A   20176.39468434 -.00000028  00000-0  00000-0 0  9990
2 27663  56.0461 301.6860 0113348  35.4995  10.7947  2.00551296127511
1 27663U 03005A   20177.06265738 -.00000029  00000-0  00000+0 0  9997
2 27663  56.0455 301.6597 0113340  35.4997 133.0738  2.00551243127514
1 27663U 03005A   20177.82907066 -.00000033  00000-0  00000-0 0  9994
2 27663  56.0449 301.6295 0113330  35.5036 326.4232  2.00551182127548
1 27663U 03005A   20178.06373443 -.00000035  00000-0  00000-0 0  9999
2 27663  56.0447 301.6203 0113327  35.5018 135.8532  2.00551166127548
1 27663U 03005A   20179.06100394 -.00000042  00000-0  00000-0 0  9991
2 27663  56.0439 301.5810 0113314  35.5028 135.8843  2.00551089127560
1 27663U 03005A   20179.82885500 -.00000049  00000-0  00000-0 0  9991
2 27663  56.0433 301.5508 0113304  35.5056 330.2727  2.00551037127585
1 27663U 03005A   20180.05854280 -.00000052  00000-0  00000+0 0  9992
2 27663  56.0431 301.5417 0113303  35.5034 136.1102  2.00551021127579
1 27663U 03005A   20181.05166793 -.00000060  00000-0  00000-0 0  9998
2 27663  56.0423 301.5026 0113292  35.5039 133.1492  2.00550955127606
1 27663U 03005A   20182.31551229 -.00000068  00000-0  00000+0 0  9997
2 27663  56.0413 301.4528 0113281  35.5077 325.6447  2.00550885127623
1 27663U 03005A   20183.04553350 -.00000071  00000-0  00000-0 0  9990
2 27663  56.0407 301.4241 0113276  35.5069 132.7229  2.00550846127647
1 27663U 03005A   20184.04319588 -.00000071  00000-0  00000-0 0  9994
2 27663  56.0399 301.3848 0113268  35.5092 133.0354  2.00550799127668
1 27663U 03005A   20185.04454014 -.00000068  00000-0  00000+0 0  9994
2 27663  56.0391 301.3453 0113258  35.5116 136.0060  2.00550755127678
1 27663U 03005A   20186.07971047 -.00000064  00000-0  00000-0 0  9995
2 27663  56.0383 301.3045 0113244  35.5127 163.4001  2.00550713127700
1 27663U 03005A   20186.80191905 -.00000061  00000-0  00000-0 0  9990
2 27663  56.0377 301.2761 0113234  35.5147 324.8341  2.00550688127710
1 27663U 03005A   20188.03632464 -.00000057  00000-0  00000+0 0  9991
2 27663  56.0367 301.2275 0113215  35.5154 136.0764  2.00550637127734
1 27663U 03005A   20188.30837405 -.00000056  00000-0  00000-0 0  9993
2 27663  56.0365 301.2168 0113212  35.5158 332.4963  2.00550632127743
1 27663U 03005A   20190.40792228 -.00000058  00000-0  00000+0 0  9991
2 27663  56.0348 301.1341 0113184  35.5173  48.3716  2.00550548127780
1 27663U 03005A   20191.28833993 -.00000061  00000-0  00000-0 0  9998
2 27663  56.0341 301.0994 0113176  35.5178 324.0336  2.00550511127807
1 27663U 03005A   20192.02082931 -.00000064  00000-0  00000-0 0  9992
2 27663  56.0335 301.0706 0113165  35.5193 132.8901  2.00550475127820
1 27663U 03005A   20192.30910670 -.00000065  00000-0  00000-0 0  9994
2 27663  56.0333 301.0593 0113167  35.5208 341.0253  2.00550463127833
1 27663U 03005A   20193.40066227 -.00000069  00000-0  00000+0 0  9999
2 27663  56.0324 301.0163 0113154  35.5249  49.1252  2.00550408127842
1 27663U 03005A   20193.78253931 -.00000069  00000-0  00000-0 0  9991
2 27663  56.0321 301.0013 0113151  35.5254 324.8402  2.00550389127855
1 27663U 03005A   20194.23017153 -.00000070  00000-0  00000-0 0  9998
2 27663  56.0317 300.9836 0113145  35.5261 288.0302  2.00550362127864
1 27663U 03005A   20195.01226948 -.00000069  00000-0  00000-0 0  9997
2 27663  56.0311 300.9528 0113132  35.5289 132.7025  2.00550315127889
1 27663U 03005A   20195.77476346 -.00000067  00000-0  00000-0 0  9997
2 27663  56.0305 300.9228 0113124  35.5303 323.2220  2.00550270127892
1 27663U 03005A   20196.01434571 -.00000066  00000-0  00000+0 0  9997
2 27663  56.0303 300.9133 0113117  35.5302 136.2005  2.00550252127899
1 27663U 03005A   20196.38920740 -.00000064  00000-0  00000-0 0  9994
2 27663  56.0301 300.8986 0113113  35.5320  46.8489  2.00550228127916
1 27663U 03005A   20196.77980081 -.00000062  00000-0  00000-0 0  9999
2 27663  56.0298 300.8832 0113109  35.5311 328.8582  2.00550201127925
1 27663U 03005A   20197.01164209 -.00000060  00000-0  00000-0 0  9991
2 27663  56.0296 300.8740 0113103  35.5308 136.2480  2.00550185127920
1 27663U 03005A   20198.00454131 -.00000053  00000-0  00000-0 0  9999
2 27663  56.0288 300.8349 0113091  35.5312 133.1206  2.00550114127943
1 27663U 03005A   20199.00623427 -.00000045  00000-0  00000+0 0  9996
2 27663  56.0280 300.7955 0113082  35.5305 136.3432  2.00550036127959
1 27663U 03005A   20200.26115380 -.00000034  00000-0  00000-0 0  9990
2 27663  56.0270 300.7460 0113077  35.5313 322.3932  2.00549933127981
1 27663U 03005A   20200.91471446 -.00000029  00000-0  00000-0 0  9994
2 27663  56.0264 300.7203 0113073  35.5332  74.2617  2.00549881128005
1 27663U 03005A   20201.26617500 -.00000027  00000-0  00000+0 0  9993
2 27663  56.0261 300.7064 0113074  35.5334 328.0155  2.00549851128004
1 27663U 03005A   20201.99216910 -.00000022  00000-0  00000-0 0  9999
2 27663  56.0256 300.6778 0113067  35.5324 132.1834  2.00549789128019
1 27663U 03005A   20203.05267193 -.00000019  00000-0  00000-0 0  9993
2 27663  56.0246 300.6361 0113060  35.5308 177.8664  2.00549696128048
1 27663U 03005A   20203.99154506 -.00000019  00000-0  00000-0 0  9999
2 27663  56.0238 300.5991 0113051  35.5299 135.7321  2.00549618128065
1 27663U 03005A   20204.98997406 -.00000022  00000-0  00000+0 0  9996
2 27663  56.0230 300.5597 0113042  35.5276 136.5982  2.00549538128078
1 27663U 03005A   20205.75262167 -.00000027  00000-0  00000-0 0  9997
2 27663  56.0224 300.5297 0113035  35.5278 327.2280  2.00549479128100
1 27663U 03005A   20205.98650060 -.00000028  00000-0  00000-0 0  9996
2 27663  56.0222 300.5204 0113034  35.5249 136.0910  2.00549461128100
1 27663U 03005A   20207.98072668 -.00000045  00000-0  00000+0 0  9998
2 27663  56.0207 300.4418 0113019  35.5175 135.9248  2.00549321128130
1 27663U 03005A   20208.97855014 -.00000052  00000-0  00000-0 0  9991
2 27663  56.0199 300.4024 0113015  35.5142 136.3539  2.00549260128166
1 27663U 03005A   20210.23898921 -.00000056  00000-0  00000-0 0  9991
2 27663  56.0189 300.3527 0113008  35.5123 326.3890  2.00549191128189
1 27663U 03005A   20210.97211090 -.00000057  00000-0  00000-0 0  9999
2 27663  56.0183 300.3238 0113006  35.5084 135.7044  2.00549152128209
1 27663U 03005A   20211.96940603 -.00000054  00000-0  00000-0 0  9995
2 27663  56.0176 300.2844 0113001  35.5065 135.7500  2.00549104128223
1 27663U 03005A   20212.96650769 -.00000050  00000-0  00000+0 0  9992
2 27663  56.0168 300.2451 0112995  35.5042 135.6560  2.00549062128233
1 27663U 03005A   20213.69477889 -.00000046  00000-0  00000-0 0  9999
2 27663  56.0162 300.2164 0112994  35.5054 301.4636  2.00549035128259
1 27663U 03005A   20214.72528517 -.00000042  00000-0  00000-0 0  9995
2 27663  56.0154 300.1757 0112984  35.5021 325.4884  2.00548995128288
1 27663U 03005A   20216.33329437 -.00000039  00000-0  00000+0 0  9999
2 27663  56.0142 300.1123 0112970  35.4972  46.4692  2.00548934128304
1 27663U 03005A   20219.21172441 -.00000047  00000-0  00000+0 0  9999
2 27663  56.0120 299.9989 0112959  35.4902 324.6893  2.00548818128366
1 27663U 03005A   20220.65057559 -.00000052  00000-0  00000-0 0  9998
2 27663  56.0109 299.9421 0112952  35.4882 283.5345  2.00548748128394
1 27663U 03005A   20221.94242267 -.00000052  00000-0  00000+0 0  9992
2 27663  56.0099 299.8912 0112940  35.4875 136.2419  2.00548676128414
1 27663U 03005A   20221.94242267 -.00000052  00000-0  00000-0 0  9993
2 27663  56.0099 299.8912 0112940  35.4875 136.2419  2.00548676128414
1 27663U 03005A   20222.93549006 -.00000050  00000-0  00000-0 0  9992
2 27663  56.0124 299.8490 0113683  35.1471 133.8880  2.00577948128440
1 27663U 03005A   20223.20456507 -.00000049  00000-0  00000+0 0  9993
2 27663  56.0094 299.8415 0113684  35.1539 328.1802  2.00578030128445
1 27663U 03005A   20223.93623551 -.00000045  00000-0  00000-0 0  9995
2 27663  56.0086 299.8129 0113677  35.1579 136.5157  2.00578038128468
